{"type": "FeatureCollection", "features": [ {"type": "Feature", "properties": {"norad_id": 17070, "name": "POLAR BEAR", "group": "nnss", "lat": 4.969032754711201, "lon": -176.653656967693, "alt_km": 978.2340258940303, "timestamp": "2025-12-24T05:51:19.877162+00:00", "meta": {"OBJECT_NAME": "POLAR BEAR", "OBJECT_ID": "1986-088A", "EPOCH": "2025-12-23T23:26:20.446656", "MEAN_MOTION": 13.75253045, "ECCENTRICITY": 0.00412898, "INCLINATION": 89.617, "RA_OF_ASC_NODE": 183.3238, "ARG_OF_PERICENTER": 86.9267, "MEAN_ANOMALY": 35.783, "EPHEMERIS_TYPE": 0, "CLASSIFICATION_TYPE": "U", "NORAD_CAT_ID": 17070, "ELEMENT_SET_NO": 999, "REV_AT_EPOCH": 96133, "BSTAR": 9.1732695e-05, "MEAN_MOTION_DOT": 1e-06, "MEAN_MOTION_DDOT": 0}, "tle": {"line1": "1 17070U 86088A   25357.97662554  .00000100  00000+0  91733-4 0  9998", "line2": "2 17070  89.6170 183.3238 0041289  86.9267  35.7830 13.75253045961331"}}, "geometry": {"type": "Point", "coordinates": [-176.653656967693, 4.969032754711201]}}, {"type": "Feature", "properties": {"norad_id": 18361, "name": "OSCAR 27", "group": "nnss", "lat": 86.85352713005372, "lon": 72.8842299061594, "alt_km": 1101.3342348402293, "timestamp": "2025-12-24T05:51:19.877172+00:00", "meta": {"OBJECT_NAME": "OSCAR 27", "OBJECT_ID": "1987-080A", "EPOCH": "2025-12-23T22:16:33.536352", "MEAN_MOTION": 13.44908878, "ECCENTRICITY": 0.01038558, "INCLINATION": 90.3737, "RA_OF_ASC_NODE": 79.6907, "ARG_OF_PERICENTER": 191.5852, "MEAN_ANOMALY": 168.2905, "EPHEMERIS_TYPE": 0, "CLASSIFICATION_TYPE": "U", "NORAD_CAT_ID": 18361, "ELEMENT_SET_NO": 999, "REV_AT_EPOCH": 87707, "BSTAR": 0.00016473483, "MEAN_MOTION_DOT": 1.08e-06, "MEAN_MOTION_DDOT": 0}, "tle": {"line1": "1 18361U 87080A   25357.92816593  .00000108  00000+0  16473-3 0  9999", "line2": "2 18361  90.3737  79.6907 0103855 191.5852 168.2905 13.44908878877073"}}, "geometry": {"type": "Point", "coordinates": [72.8842299061594, 86.85352713005372]}}, {"type": "Feature", "properties": {"norad_id": 18362, "name": "OSCAR 29", "group": "nnss", "lat": 80.37641869976194, "lon": 77.94882422012475, "alt_km": 1138.8114367938706, "timestamp": "2025-12-24T05:51:19.877183+00:00", "meta": {"OBJECT_NAME": "OSCAR 29", "OBJECT_ID": "1987-080B", "EPOCH": "2025-12-23T11:38:40.001280", "MEAN_MOTION": 13.44450427, "ECCENTRICITY": 0.01046277, "INCLINATION": 90.375, "RA_OF_ASC_NODE": 80.1339, "ARG_OF_PERICENTER": 216.0464, "MEAN_ANOMALY": 154.8179, "EPHEMERIS_TYPE": 0, "CLASSIFICATION_TYPE": "U", "NORAD_CAT_ID": 18362, "ELEMENT_SET_NO": 999, "REV_AT_EPOCH": 87654, "BSTAR": 0.00017755719, "MEAN_MOTION_DOT": 1.15e-06, "MEAN_MOTION_DDOT": 0}, "tle": {"line1": "1 18362U 87080B   25357.48518520  .00000115  00000+0  17756-3 0  9993", "line2": "2 18362  90.3750  80.1339 0104627 216.0464 154.8179 13.44450427876542"}}, "geometry": {"type": "Point", "coordinates": [77.94882422012475, 80.37641869976194]}}, {"type": "Feature", "properties": {"norad_id": 19070, "name": "OSCAR 23", "group": "nnss", "lat": -69.7134624035366, "lon": -164.11838819382578, "alt_km": 1188.8907594767688, "timestamp": "2025-12-24T05:51:19.877193+00:00", "meta": {"OBJECT_NAME": "OSCAR 23", "OBJECT_ID": "1988-033A", "EPOCH": "2025-12-23T06:58:39.887616", "MEAN_MOTION": 13.27788847, "ECCENTRICITY": 0.01903681, "INCLINATION": 90.3204, "RA_OF_ASC_NODE": 16.7193, "ARG_OF_PERICENTER": 150.6466, "MEAN_ANOMALY": 223.0077, "EPHEMERIS_TYPE": 0, "CLASSIFICATION_TYPE": "U", "NORAD_CAT_ID": 19070, "ELEMENT_SET_NO": 999, "REV_AT_EPOCH": 82393, "BSTAR": 0.00016075788, "MEAN_MOTION_DOT": 8.9e-07, "MEAN_MOTION_DDOT": 0}, "tle": {"line1": "1 19070U 88033A   25357.29073944  .00000089  00000+0  16076-3 0  9998", "line2": "2 19070  90.3204  16.7193 0190368 150.6466 223.0077 13.27788847823930"}}, "geometry": {"type": "Point", "coordinates": [-164.11838819382578, -69.7134624035366]}}, {"type": "Feature", "properties": {"norad_id": 19071, "name": "OSCAR 32", "group": "nnss", "lat": 3.0000572458355657, "lon": 16.86455038780161, "alt_km": 1250.5169358612047, "timestamp": "2025-12-24T05:51:19.877204+00:00", "meta": {"OBJECT_NAME": "OSCAR 32", "OBJECT_ID": "1988-033B", "EPOCH": "2025-12-23T22:56:23.699040", "MEAN_MOTION": 13.27955635, "ECCENTRICITY": 0.01891699, "INCLINATION": 90.3208, "RA_OF_ASC_NODE": 16.8724, "ARG_OF_PERICENTER": 135.7301, "MEAN_ANOMALY": 292.2728, "EPHEMERIS_TYPE": 0, "CLASSIFICATION_TYPE": "U", "NORAD_CAT_ID": 19071, "ELEMENT_SET_NO": 999, "REV_AT_EPOCH": 82414, "BSTAR": 9.6531271e-05, "MEAN_MOTION_DOT": 5.8e-07, "MEAN_MOTION_DDOT": 0}, "tle": {"line1": "1 19071U 88033B   25357.95582985  .00000058  00000+0  96531-4 0  9993", "line2": "2 19071  90.3208  16.8724 0189169 135.7301 292.2728 13.27955635824141"}}, "geometry": {"type": "Point", "coordinates": [16.86455038780161, 3.0000572458355657]}}, {"type": "Feature", "properties": {"norad_id": 19223, "name": "NOVA 2", "group": "nnss", "lat": -5.627900874063369, "lon": 78.25678440450677, "alt_km": 1154.9895852953096, "timestamp": "2025-12-24T05:51:19.877214+00:00", "meta": {"OBJECT_NAME": "NOVA 2", "OBJECT_ID": "1988-052A", "EPOCH": "2025-12-22T19:59:41.866944", "MEAN_MOTION": 13.22936943, "ECCENTRICITY": 0.00297225, "INCLINATION": 89.9867, "RA_OF_ASC_NODE": 78.2599, "ARG_OF_PERICENTER": 349.0095, "MEAN_ANOMALY": 130.0034, "EPHEMERIS_TYPE": 0, "CLASSIFICATION_TYPE": "U", "NORAD_CAT_ID": 19223, "ELEMENT_SET_NO": 999, "REV_AT_EPOCH": 81081, "BSTAR": 0.00019678035, "MEAN_MOTION_DOT": 9.1e-07, "MEAN_MOTION_DDOT": 0}, "tle": {"line1": "1 19223U 88052A   25356.83312346  .00000091  00000+0  19678-3 0  9994", "line2": "2 19223  89.9867  78.2599 0029722 349.0095 130.0034 13.22936943810819"}}, "geometry": {"type": "Point", "coordinates": [78.25678440450677, -5.627900874063369]}}, {"type": "Feature", "properties": {"norad_id": 19419, "name": "OSCAR 25", "group": "nnss", "lat": 15.815955980545851, "lon": -159.70895664315321, "alt_km": 1052.706295505055, "timestamp": "2025-12-24T05:51:19.877224+00:00", "meta": {"OBJECT_NAME": "OSCAR 25", "OBJECT_ID": "1988-074A", "EPOCH": "2025-12-23T19:11:04.430112", "MEAN_MOTION": 13.42625286, "ECCENTRICITY": 0.00951018, "INCLINATION": 90.0337, "RA_OF_ASC_NODE": 20.28, "ARG_OF_PERICENTER": 213.8581, "MEAN_ANOMALY": 323.2352, "EPHEMERIS_TYPE": 0, "CLASSIFICATION_TYPE": "U", "NORAD_CAT_ID": 19419, "ELEMENT_SET_NO": 999, "REV_AT_EPOCH": 82788, "BSTAR": 0.00012495354, "MEAN_MOTION_DOT": 8.1e-07, "MEAN_MOTION_DDOT": 0}, "tle": {"line1": "1 19419U 88074A   25357.79935683  .00000081  00000+0  12495-3 0  9995", "line2": "2 19419  90.0337  20.2800 0095101 213.8581 323.2352 13.42625286827886"}}, "geometry": {"type": "Point", "coordinates": [-159.70895664315321, 15.815955980545851]}}, {"type": "Feature", "properties": {"norad_id": 19420, "name": "OSCAR 31", "group": "nnss", "lat": 46.6143019619915, "lon": 20.595895802276374, "alt_km": 1161.2504080385634, "timestamp": "2025-12-24T05:51:19.877234+00:00", "meta": {"OBJECT_NAME": "OSCAR 31", "OBJECT_ID": "1988-074B", "EPOCH": "2025-12-23T12:20:30.247008", "MEAN_MOTION": 13.4258639, "ECCENTRICITY": 0.00934673, "INCLINATION": 90.0354, "RA_OF_ASC_NODE": 20.6308, "ARG_OF_PERICENTER": 208.825, "MEAN_ANOMALY": 273.2468, "EPHEMERIS_TYPE": 0, "CLASSIFICATION_TYPE": "U", "NORAD_CAT_ID": 19420, "ELEMENT_SET_NO": 999, "REV_AT_EPOCH": 82795, "BSTAR": 0.00011194923, "MEAN_MOTION_DOT": 7.4e-07, "MEAN_MOTION_DDOT": 0}, "tle": {"line1": "1 19420U 88074B   25357.51423897  .00000074  00000+0  11195-3 0  9994", "line2": "2 19420  90.0354  20.6308 0093467 208.8250 273.2468 13.42586390827956"}}, "geometry": {"type": "Point", "coordinates": [20.595895802276374, 46.6143019619915]}}]}